[{"OBJECT_NAME":"CUBESX-HSE 3 (RS42S)","OBJECT_ID":"2023-091N","EPOCH":"2026-03-07T04:58:13.611072","MEAN_MOTION":15.28505631,"ECCENTRICITY":0.001275,"INCLINATION":97.5208,"RA_OF_ASC_NODE":130.6522,"ARG_OF_PERICENTER":94.9425,"MEAN_ANOMALY":265.327,"EPHEMERIS_TYPE":0,"CLASSIFICATION_TYPE":"U","NORAD_CAT_ID":57178,"ELEMENT_SET_NO":999,"REV_AT_EPOCH":14883,"BSTAR":0.00061164,"MEAN_MOTION_DOT":0.00016951,"MEAN_MOTION_DDOT":0},{"OBJECT_NAME":"MONITOR-3 (RS58S)","OBJECT_ID":"2023-091Q","EPOCH":"2026-03-07T05:17:26.116224","MEAN_MOTION":15.25658255,"ECCENTRICITY":0.0013754,"INCLINATION":97.5203,"RA_OF_ASC_NODE":129.0206,"ARG_OF_PERICENTER":99.6754,"MEAN_ANOMALY":260.6038,"EPHEMERIS_TYPE":0,"CLASSIFICATION_TYPE":"U","NORAD_CAT_ID":57180,"ELEMENT_SET_NO":999,"REV_AT_EPOCH":14873,"BSTAR":0.00054118,"MEAN_MOTION_DOT":0.00013748,"MEAN_MOTION_DDOT":0},{"OBJECT_NAME":"MONITOR-4 (RS57S)","OBJECT_ID":"2023-091S","EPOCH":"2026-03-07T04:56:13.013952","MEAN_MOTION":15.25743401,"ECCENTRICITY":0.0013685,"INCLINATION":97.5196,"RA_OF_ASC_NODE":128.9705,"ARG_OF_PERICENTER":100.0295,"MEAN_ANOMALY":260.2488,"EPHEMERIS_TYPE":0,"CLASSIFICATION_TYPE":"U","NORAD_CAT_ID":57182,"ELEMENT_SET_NO":999,"REV_AT_EPOCH":14873,"BSTAR":0.0005856,"MEAN_MOTION_DOT":0.00014922,"MEAN_MOTION_DDOT":0},{"OBJECT_NAME":"MONITOR-2 (RS39S)","OBJECT_ID":"2023-091U","EPOCH":"2026-03-07T04:02:03.945408","MEAN_MOTION":15.17876473,"ECCENTRICITY":0.0012982,"INCLINATION":97.5204,"RA_OF_ASC_NODE":125.119,"ARG_OF_PERICENTER":106.6277,"MEAN_ANOMALY":253.6383,"EPHEMERIS_TYPE":0,"CLASSIFICATION_TYPE":"U","NORAD_CAT_ID":57184,"ELEMENT_SET_NO":999,"REV_AT_EPOCH":14847,"BSTAR":0.00039665,"MEAN_MOTION_DOT":7.988e-5,"MEAN_MOTION_DDOT":0},{"OBJECT_NAME":"SVYATOBOR 1 (RS60S)","OBJECT_ID":"2023-091X","EPOCH":"2026-03-07T04:57:10.970208","MEAN_MOTION":15.24744615,"ECCENTRICITY":0.0011228,"INCLINATION":97.5208,"RA_OF_ASC_NODE":129.5381,"ARG_OF_PERICENTER":92.7065,"MEAN_ANOMALY":267.5458,"EPHEMERIS_TYPE":0,"CLASSIFICATION_TYPE":"U","NORAD_CAT_ID":57187,"ELEMENT_SET_NO":999,"REV_AT_EPOCH":14876,"BSTAR":0.00055401,"MEAN_MOTION_DOT":0.00013683,"MEAN_MOTION_DDOT":0},{"OBJECT_NAME":"HORS 1","OBJECT_ID":"2023-091Y","EPOCH":"2026-03-07T04:44:51.870048","MEAN_MOTION":15.24813758,"ECCENTRICITY":0.0010756,"INCLINATION":97.5188,"RA_OF_ASC_NODE":129.3068,"ARG_OF_PERICENTER":92.9777,"MEAN_ANOMALY":267.2692,"EPHEMERIS_TYPE":0,"CLASSIFICATION_TYPE":"U","NORAD_CAT_ID":57188,"ELEMENT_SET_NO":999,"REV_AT_EPOCH":14876,"BSTAR":0.00050362,"MEAN_MOTION_DOT":0.00012453,"MEAN_MOTION_DDOT":0},{"OBJECT_NAME":"VIZARD-METEO (RS38S)","OBJECT_ID":"2023-091Z","EPOCH":"2026-03-07T05:12:38.539008","MEAN_MOTION":15.32633345,"ECCENTRICITY":0.0008859,"INCLINATION":97.5196,"RA_OF_ASC_NODE":133.8654,"ARG_OF_PERICENTER":79.9421,"MEAN_ANOMALY":280.282,"EPHEMERIS_TYPE":0,"CLASSIFICATION_TYPE":"U","NORAD_CAT_ID":57189,"ELEMENT_SET_NO":999,"REV_AT_EPOCH":14905,"BSTAR":0.00069288,"MEAN_MOTION_DOT":0.00021818,"MEAN_MOTION_DDOT":0},{"OBJECT_NAME":"NANOZOND 1 (RS49S)","OBJECT_ID":"2023-091AA","EPOCH":"2026-03-04T18:50:11.914368","MEAN_MOTION":15.72447637,"ECCENTRICITY":4.56e-5,"INCLINATION":97.509,"RA_OF_ASC_NODE":143.6448,"ARG_OF_PERICENTER":27.7219,"MEAN_ANOMALY":332.4068,"EPHEMERIS_TYPE":0,"CLASSIFICATION_TYPE":"U","NORAD_CAT_ID":57190,"ELEMENT_SET_NO":999,"REV_AT_EPOCH":14950,"BSTAR":0.0017099321,"MEAN_MOTION_DOT":0.00233103,"MEAN_MOTION_DDOT":0},{"OBJECT_NAME":"SITRO-AIS 6 (CHIRKIN)","OBJECT_ID":"2023-091AC","EPOCH":"2026-03-07T05:16:07.787712","MEAN_MOTION":15.2435966,"ECCENTRICITY":0.0014215,"INCLINATION":97.5186,"RA_OF_ASC_NODE":128.88,"ARG_OF_PERICENTER":103.4151,"MEAN_ANOMALY":256.8672,"EPHEMERIS_TYPE":0,"CLASSIFICATION_TYPE":"U","NORAD_CAT_ID":57192,"ELEMENT_SET_NO":999,"REV_AT_EPOCH":14874,"BSTAR":0.00033969,"MEAN_MOTION_DOT":8.268e-5,"MEAN_MOTION_DDOT":0},{"OBJECT_NAME":"SITRO-AIS 8 (ANOKHIN)","OBJECT_ID":"2023-091AD","EPOCH":"2026-03-07T04:13:09.892416","MEAN_MOTION":15.29245713,"ECCENTRICITY":0.0012599,"INCLINATION":97.5173,"RA_OF_ASC_NODE":130.4384,"ARG_OF_PERICENTER":100.7249,"MEAN_ANOMALY":259.541,"EPHEMERIS_TYPE":0,"CLASSIFICATION_TYPE":"U","NORAD_CAT_ID":57193,"ELEMENT_SET_NO":999,"REV_AT_EPOCH":14884,"BSTAR":0.00072419,"MEAN_MOTION_DOT":0.00020553,"MEAN_MOTION_DDOT":0},{"OBJECT_NAME":"SITRO-AIS 7 (FARTUSHNIY)","OBJECT_ID":"2023-091AE","EPOCH":"2026-03-07T04:53:16.891872","MEAN_MOTION":15.24113313,"ECCENTRICITY":0.0014052,"INCLINATION":97.5185,"RA_OF_ASC_NODE":128.7363,"ARG_OF_PERICENTER":104.2391,"MEAN_ANOMALY":256.0408,"EPHEMERIS_TYPE":0,"CLASSIFICATION_TYPE":"U","NORAD_CAT_ID":57194,"ELEMENT_SET_NO":999,"REV_AT_EPOCH":14873,"BSTAR":0.00035423,"MEAN_MOTION_DOT":8.562e-5,"MEAN_MOTION_DDOT":0},{"OBJECT_NAME":"AVION KALUGA 650","OBJECT_ID":"2023-091AF","EPOCH":"2026-03-07T04:12:46.730304","MEAN_MOTION":15.19169408,"ECCENTRICITY":0.0012165,"INCLINATION":97.5217,"RA_OF_ASC_NODE":126.1864,"ARG_OF_PERICENTER":105.3077,"MEAN_ANOMALY":254.9502,"EPHEMERIS_TYPE":0,"CLASSIFICATION_TYPE":"U","NORAD_CAT_ID":57195,"ELEMENT_SET_NO":999,"REV_AT_EPOCH":14853,"BSTAR":0.00038723,"MEAN_MOTION_DOT":8.091e-5,"MEAN_MOTION_DDOT":0},{"OBJECT_NAME":"HORS 2","OBJECT_ID":"2023-091AG","EPOCH":"2026-03-07T04:14:06.518976","MEAN_MOTION":15.29174017,"ECCENTRICITY":0.0009936,"INCLINATION":97.5201,"RA_OF_ASC_NODE":131.9658,"ARG_OF_PERICENTER":87.7093,"MEAN_ANOMALY":272.5285,"EPHEMERIS_TYPE":0,"CLASSIFICATION_TYPE":"U","NORAD_CAT_ID":57196,"ELEMENT_SET_NO":999,"REV_AT_EPOCH":14892,"BSTAR":0.00057826,"MEAN_MOTION_DOT":0.00016336,"MEAN_MOTION_DDOT":0},{"OBJECT_NAME":"A-SEANSAT-PG1","OBJECT_ID":"2023-091AH","EPOCH":"2026-03-07T04:45:16.729056","MEAN_MOTION":15.3328212,"ECCENTRICITY":0.0008994,"INCLINATION":97.5189,"RA_OF_ASC_NODE":133.8311,"ARG_OF_PERICENTER":86.512,"MEAN_ANOMALY":273.715,"EPHEMERIS_TYPE":0,"CLASSIFICATION_TYPE":"U","NORAD_CAT_ID":57197,"ELEMENT_SET_NO":999,"REV_AT_EPOCH":14906,"BSTAR":0.00071464,"MEAN_MOTION_DOT":0.00022973,"MEAN_MOTION_DDOT":0},{"OBJECT_NAME":"SITRO-AIS 10 (BURDAEV)","OBJECT_ID":"2023-091AK","EPOCH":"2026-03-07T05:02:07.069920","MEAN_MOTION":15.34612839,"ECCENTRICITY":0.0008285,"INCLINATION":97.5186,"RA_OF_ASC_NODE":134.5693,"ARG_OF_PERICENTER":82.6173,"MEAN_ANOMALY":277.6011,"EPHEMERIS_TYPE":0,"CLASSIFICATION_TYPE":"U","NORAD_CAT_ID":57199,"ELEMENT_SET_NO":999,"REV_AT_EPOCH":14910,"BSTAR":0.00087872,"MEAN_MOTION_DOT":0.00029499,"MEAN_MOTION_DDOT":0},{"OBJECT_NAME":"SITRO-AIS 9 (SHCHUKIN)","OBJECT_ID":"2023-091AM","EPOCH":"2026-03-07T04:58:41.099232","MEAN_MOTION":15.34239744,"ECCENTRICITY":0.0008506,"INCLINATION":97.5185,"RA_OF_ASC_NODE":134.3677,"ARG_OF_PERICENTER":82.4332,"MEAN_ANOMALY":277.7876,"EPHEMERIS_TYPE":0,"CLASSIFICATION_TYPE":"U","NORAD_CAT_ID":57201,"ELEMENT_SET_NO":999,"REV_AT_EPOCH":14909,"BSTAR":0.0007551,"MEAN_MOTION_DOT":0.00025027,"MEAN_MOTION_DDOT":0},{"OBJECT_NAME":"UTMN 2 (RS27S)","OBJECT_ID":"2023-091AP","EPOCH":"2026-03-07T05:12:13.140000","MEAN_MOTION":15.29389516,"ECCENTRICITY":0.0009825,"INCLINATION":97.5199,"RA_OF_ASC_NODE":132.1701,"ARG_OF_PERICENTER":84.2325,"MEAN_ANOMALY":276.0035,"EPHEMERIS_TYPE":0,"CLASSIFICATION_TYPE":"U","NORAD_CAT_ID":57203,"ELEMENT_SET_NO":999,"REV_AT_EPOCH":14894,"BSTAR":0.00059219,"MEAN_MOTION_DOT":0.00016843,"MEAN_MOTION_DDOT":0},{"OBJECT_NAME":"SITRO-AIS 12 (SMIRENNIY)","OBJECT_ID":"2023-091AQ","EPOCH":"2026-03-07T05:11:13.032384","MEAN_MOTION":15.34483675,"ECCENTRICITY":0.000817,"INCLINATION":97.5196,"RA_OF_ASC_NODE":134.784,"ARG_OF_PERICENTER":77.6324,"MEAN_ANOMALY":282.5833,"EPHEMERIS_TYPE":0,"CLASSIFICATION_TYPE":"U","NORAD_CAT_ID":57204,"ELEMENT_SET_NO":999,"REV_AT_EPOCH":14911,"BSTAR":0.0008018,"MEAN_MOTION_DOT":0.0002679,"MEAN_MOTION_DDOT":0},{"OBJECT_NAME":"SITRO-AIS 11 (SHEFFER)","OBJECT_ID":"2023-091AU","EPOCH":"2026-03-07T04:33:23.903136","MEAN_MOTION":15.348234,"ECCENTRICITY":0.0008057,"INCLINATION":97.5194,"RA_OF_ASC_NODE":134.946,"ARG_OF_PERICENTER":77.8631,"MEAN_ANOMALY":282.3514,"EPHEMERIS_TYPE":0,"CLASSIFICATION_TYPE":"U","NORAD_CAT_ID":57208,"ELEMENT_SET_NO":999,"REV_AT_EPOCH":14912,"BSTAR":0.00071167,"MEAN_MOTION_DOT":0.00024017,"MEAN_MOTION_DDOT":0},{"OBJECT_NAME":"H2SAT (HEINRICH HERTZ)","OBJECT_ID":"2023-093A","EPOCH":"2026-03-07T01:45:38.679840","MEAN_MOTION":1.00271683,"ECCENTRICITY":0.0001497,"INCLINATION":0.0451,"RA_OF_ASC_NODE":303.5692,"ARG_OF_PERICENTER":161.7097,"MEAN_ANOMALY":86.5961,"EPHEMERIS_TYPE":0,"CLASSIFICATION_TYPE":"U","NORAD_CAT_ID":57213,"ELEMENT_SET_NO":999,"REV_AT_EPOCH":989,"BSTAR":0,"MEAN_MOTION_DOT":-1.0e-8,"MEAN_MOTION_DDOT":0},{"OBJECT_NAME":"KUZGTU 1 (RS47S)","OBJECT_ID":"2023-091AV","EPOCH":"2026-03-07T04:20:44.784960","MEAN_MOTION":15.273811,"ECCENTRICITY":0.0012979,"INCLINATION":97.5184,"RA_OF_ASC_NODE":129.749,"ARG_OF_PERICENTER":97.8936,"MEAN_ANOMALY":262.3776,"EPHEMERIS_TYPE":0,"CLASSIFICATION_TYPE":"U","NORAD_CAT_ID":57217,"ELEMENT_SET_NO":999,"REV_AT_EPOCH":14879,"BSTAR":0.00059774,"MEAN_MOTION_DOT":0.00016005,"MEAN_MOTION_DDOT":0},{"OBJECT_NAME":"QIANKUN-1","OBJECT_ID":"2023-103B","EPOCH":"2026-03-07T02:09:39.513888","MEAN_MOTION":16.07904604,"ECCENTRICITY":0.0035441,"INCLINATION":96.1945,"RA_OF_ASC_NODE":117.7831,"ARG_OF_PERICENTER":171.2462,"MEAN_ANOMALY":188.945,"EPHEMERIS_TYPE":0,"CLASSIFICATION_TYPE":"U","NORAD_CAT_ID":57422,"ELEMENT_SET_NO":999,"REV_AT_EPOCH":15089,"BSTAR":-2.0836e-7,"MEAN_MOTION_DOT":-7.17e-6,"MEAN_MOTION_DDOT":1.6817e-6},{"OBJECT_NAME":"FENGYUN 3F","OBJECT_ID":"2023-111A","EPOCH":"2026-03-07T05:19:11.849952","MEAN_MOTION":14.19918695,"ECCENTRICITY":0.0001287,"INCLINATION":98.6932,"RA_OF_ASC_NODE":138.0951,"ARG_OF_PERICENTER":80.8701,"MEAN_ANOMALY":279.2621,"EPHEMERIS_TYPE":0,"CLASSIFICATION_TYPE":"U","NORAD_CAT_ID":57490,"ELEMENT_SET_NO":999,"REV_AT_EPOCH":13439,"BSTAR":5.9271e-5,"MEAN_MOTION_DOT":8.2e-7,"MEAN_MOTION_DDOT":0}]
